[{"OBJECT_NAME":"BRO-14","OBJECT_ID":"2024-149CM","EPOCH":"2026-03-09T19:21:31.034016","MEAN_MOTION":14.95926897,"ECCENTRICITY":0.000793,"INCLINATION":97.6931,"RA_OF_ASC_NODE":146.3614,"ARG_OF_PERICENTER":74.9836,"MEAN_ANOMALY":285.2263,"EPHEMERIS_TYPE":0,"CLASSIFICATION_TYPE":"U","NORAD_CAT_ID":60551,"ELEMENT_SET_NO":999,"REV_AT_EPOCH":8513,"BSTAR":0.00014547278,"MEAN_MOTION_DOT":1.572e-5,"MEAN_MOTION_DDOT":0},{"OBJECT_NAME":"STARLINK-35898","OBJECT_ID":"2025-280F","EPOCH":"2026-03-09T21:57:09.540000","MEAN_MOTION":14.98331395,"ECCENTRICITY":0.00023614,"INCLINATION":70.0019,"RA_OF_ASC_NODE":333.7246,"ARG_OF_PERICENTER":270.0315,"MEAN_ANOMALY":90.0573,"EPHEMERIS_TYPE":0,"CLASSIFICATION_TYPE":"U","NORAD_CAT_ID":66826,"ELEMENT_SET_NO":999,"REV_AT_EPOCH":1611,"BSTAR":0.00051675737,"MEAN_MOTION_DOT":6.078e-5,"MEAN_MOTION_DDOT":0}]
